{"type":"FeatureCollection","features":[{"type":"Feature","properties":{"name":"Bakerloo Line","color":"#894E24"},"geometry":{"type":"LineString","coordinates":[[-0.335,51.592],[-0.275,51.534],[-0.16,51.523],[-0.114,51.503]]}},{"type":"Feature","properties":{"name":"Central Line","color":"#DC241F"},"geometry":{"type":"LineString","coordinates":[[-0.48,51.512],[-0.3,51.513],[-0.125,51.515],[0.05,51.515]]}},{"type":"Feature","properties":{"name":"Jubilee Line","color":"#A1A5A7"},"geometry":{"type":"LineString","coordinates":[[-0.434,51.553],[-0.295,51.546],[-0.135,51.503],[0.005,51.503]]}},{"type":"Feature","properties":{"name":"Northern Line","color":"#000000"},"geometry":{"type":"LineString","coordinates":[[-0.18,51.615],[-0.15,51.565],[-0.13,51.52],[-0.1,51.48]]}},{"type":"Feature","properties":{"name":"Piccadilly Line","color":"#0019A8"},"geometry":{"type":"LineString","coordinates":[[-0.45,51.471],[-0.3,51.51],[-0.135,51.517],[0.02,51.515]]}},{"type":"Feature","properties":{"name":"Victoria Line","color":"#00A0E2"},"geometry":{"type":"LineString","coordinates":[[-0.105,51.586],[-0.11,51.54],[-0.115,51.495]]}},{"type":"Feature","properties":{"name":"Waterloo & City Line","color":"#76D0BD"},"geometry":{"type":"LineString","coordinates":[[-0.114,51.503],[-0.087,51.514]]}}]}